#aV2014  9 25  0  0  0.00000000     288 DD+AD WGS84 FIT  NGA
## 1811 345600.00000000   300.00000000 56925 0.0000000000000
+   31     1  2  4  5  6  7  8  9 10 11 12 13 14 15 16 17 18
+         19 20 21 22 23 24 25 26 27 28 29 30 31 32  0  0  0
+          0  0  0  0  0  0  0  0  0  0  0  0  0  0  0  0  0
+          0  0  0  0  0  0  0  0  0  0  0  0  0  0  0  0  0
+          0  0  0  0  0  0  0  0  0  0  0  0  0  0  0  0  0
++         2  2  2  2  2  2  2  2  2  2  2  2  2  2  2  2  2
++         2  2  2  2  2  2  2  2  2  2  2  2  2  2  0  0  0
++         0  0  0  0  0  0  0  0  0  0  0  0  0  0  0  0  0
++         0  0  0  0  0  0  0  0  0  0  0  0  0  0  0  0  0
++         0  0  0  0  0  0  0  0  0  0  0  0  0  0  0  0  0
%c cc cc ccc ccc cccc cccc cccc cccc ccccc ccccc ccccc ccccc
%c cc cc ccc ccc cccc cccc cccc cccc ccccc ccccc ccccc ccccc
%f  0.0000000  0.000000000  0.00000000000  0.000000000000000
%f  0.0000000  0.000000000  0.00000000000  0.000000000000000
%i    0    0    0    0      0      0      0      0         0
%i    0    0    0    0      0      0      0      0         0
/*      NGA, ST. LOUIS,MO.                                  
/*   EPHEMERIS COMPUTED FROM  1 DAYS OF DATA                
/*   EPOCHA SMOOTHER                                       
/* CCCCCCCCCCCCCCCCCCCCCCCCCCCCCCCCCCCCCCCCCCCCCCCCCCCCCCCCC
*  2014  9 25  2 10  0.00000000
P  1 -13376.847673  19652.709526  11634.263426     21.655926                    
V  1   1253.445086 -15057.059816  26919.905580      0.005052                    
P  2  14741.863690   5088.386511 -21208.204830    520.400160                    
V  2  -5982.465003  27068.160401   1823.755711      0.022074                    
P  4 -10615.192396  23099.091603   6841.472968     -0.986619                    
V  4  -1395.531509  -9794.756938  29772.235579     -0.003526                    
P  5  25083.508216   -608.571298  -9018.344786   -336.250041                    
V  5 -10111.399930   5888.545388 -28481.611231      0.038801                    
P  6   8518.513624  17707.109310 -17890.407812     -3.835106                    
V  6  -6945.591041  21651.219002  18122.932947      0.014043                    
P  7  -6476.549418  25545.510704    756.869346    395.305270                    
V  7  -2884.315973    100.955403 -32232.543657      0.041328                    
P  8 -11712.563607  23057.936800  -3988.008368     15.649922                    
V  8   -133.115296  -5834.025219 -32421.145931      0.001284                    
P  9   -292.218937  18351.422557 -19188.165838     17.265908                    
V  9 -18554.146305 -15883.255127 -14918.855702     -0.031366                    
P 10  13651.994514  11446.713400 -20173.148095   -143.209273                    
V 10 -23635.446822   7537.925848 -11502.616653     -0.014236                    
P 11 -13203.648847  13989.244715  17732.750463   -523.796276                    
V 11  -4665.166306 -23591.651098  14892.358891     -0.028678                    
P 12  23339.402472 -10379.207572  -6932.517427    234.321004                    
V 12   8950.796483   -129.082647  30872.727643      0.026513                    
P 13   -771.551573  18884.326298 -18770.740138    -44.844250                    
V 13 -16044.803893 -17224.130945 -16970.070458     -0.036459                    
P 14 -13623.544114 -22009.365182   6534.479502    131.660125                    
V 14   7007.587387   4401.652747  30385.310606     -0.036828                    
P 15  16919.517677  -4664.442010  19955.254586   -204.825766                    
V 15  18290.653699  17782.452182 -11012.938232     -0.022338                    
P 16 -25162.634809   -493.300961  -9094.620850   -192.607095                    
V 16  10736.119212  -3894.601327 -29333.851563      0.025786                    
P 17  13727.822708  21746.578166   7366.148555   -126.264165                    
V 17  -7729.951855  -4976.161489  29960.673535     -0.026991                    
P 18   3745.209507 -17119.192373  20349.735562    347.074055                    
V 18  24344.321936  -5969.108113 -10048.132067      0.024375                    
P 19 -18503.347540  -1389.981073  19004.006743   -480.360244                    
V 19 -15024.036746 -19150.106348 -15453.369693     -0.018751                    
P 20 -18820.440422  15401.361600 -10790.422774    237.772661                    
V 20 -13848.487203   1437.543024  26754.771615      0.043702                    
P 21   1227.079385 -25669.411888   6393.204793   -385.856890                    
V 21   5405.177170  -6345.656681 -29967.336416     -0.020980                    
P 22 -10764.828949 -13091.611695  20695.875076    271.009547                    
V 22  24565.190854  -8279.483942   7454.992134      0.034107                    
P 23 -10784.636861  10968.518514 -21523.230384    -54.906186                    
V 23 -19916.431936 -19216.043676   -235.817324     -0.028930                    
P 24  14522.198921 -16696.959524  14594.741057    -35.757230                    
V 24  -2047.146767  18644.019032  23440.758213     -0.006190                    
P 25  13956.322338 -15560.502549 -16382.343557     20.493182                    
V 25  20299.708796  -4234.519693  21544.631468     -0.011362                    
P 26  20347.526721   9440.713479  13781.367463    -66.499281                    
V 26  10548.849170  15300.174089 -24611.563723     -0.129758                    
P 27 -21843.994182  -9866.163280  11500.494954     17.144232                    
V 27  -8982.934261 -11727.831958 -27016.705522      0.029952                    
P 28   5159.089771  14086.385009  22536.283725    386.709432                    
V 28 -26421.553438   5823.533458   2352.606907      0.027077                    
P 29   2030.601800 -17632.202008 -19744.442218    562.556953                    
V 29  17921.679354  17593.030123 -13810.569027      0.024559                    
P 30    356.691112  24027.939539  11256.885978    -65.794353                    
V 30  -6906.988227  12792.965952 -27135.337018     -0.041941                    
P 31  -8942.926970 -15803.451327 -19115.835506    331.322301                    
V 31   7957.579328 -23380.296969  15785.641263     -0.004537                    
P 32 -25816.963920   4765.596650    522.818890   -332.508974                    
V 32    -98.379514  -3764.029227  31816.243441      0.086813                    
EOF
